satname,norad_id,inclination_deg,eccentricity,mean_motion_rev_per_day,perigee_km,apogee_km,l1,l2
STARLINK-1008,44714,53.0548,0.000128,15.06400815,546.3226157860945,548.0955043774757,1 44714U 19074B   25249.85767178  .00001609  00000+0  12690-3 0  9998,2 44714  53.0548 291.8762 0001280  86.1274 273.9862 15.06400815321048
STARLINK-1010,44716,53.0506,0.0011146,15.75177227,336.6342733271622,351.6195440323909,1 44716U 19074D   25250.00002315  .00077138  00000+0  50232-3 0  9998,2 44716  53.0506 247.2488 0011146   6.7617 359.7200 15.75177227  5980
STARLINK-1011,44717,53.0524,0.000542,15.64233286,371.78427705216836,379.1051596348525,1 44717U 19074E   25250.00002315  .00123322  00000+0  12565-2 0  9992,2 44717  53.0524 300.0078 0005420 353.5479 332.2812 15.64233286  5780
STARLINK-1012,44718,53.0533,0.0001109,15.06402737,546.4351492153874,547.9711896649687,1 44718U 19074F   25249.43749168  .00009990  00000+0  68858-3 0  9993,2 44718  53.0533 293.7642 0001109  96.7296 263.3819 15.06402737320976
STARLINK-1015,44721,53.046,0.0003944,15.91576,295.23908583035427,300.5051218114486,1 44721U 19074J   25250.00002315  .00312467  47746-4  94923-3 0  9999,2 44721  53.0460 236.7458 0003944   3.0025 219.5216 15.91576000  5963
STARLINK-1017,44723,53.0533,0.0002377,15.10309268,533.6127521119424,536.8993791753501,1 44723U 19074L   25249.82804090  .00041862  00000+0  25286-2 0  9999,2 44723  53.0533 290.8892 0002377 317.8960  42.1847 15.10309268321054
STARLINK-1019,44724,53.0549,0.0001353,15.06398507,546.2791334930262,548.1531340510246,1 44724U 19074M   25249.43379117  .00000220  00000+0  33648-4 0  9990,2 44724  53.0549 293.7787 0001353  78.0528 282.0613 15.06398507320971
STARLINK-1020,44725,53.056,0.0001545,15.06406621,546.1213023841656,548.2612288182363,1 44725U 19074N   25249.90373619  .00002195  00000+0  16616-3 0  9992,2 44725  53.0560 311.6681 0001545  85.7882 274.3284 15.06406621320761
STARLINK-1021,44726,53.0451,0.0004083,15.85806826,311.3214526407937,316.7862957086445,1 44726U 19074P   25250.00002315  .00345608  00000+0  13354-2 0  9992,2 44726  53.0451 242.0887 0004083 341.8386 201.2037 15.85806826  5900
STARLINK-1029,44734,53.0529,0.0009441,15.81104259,320.9860941701081,333.6473318710332,1 44734U 19074X   25250.00002315  .00261687  00000+0  12727-2 0  9998,2 44734  53.0529 165.3905 0009441  69.5757 247.6203 15.81104259  5997
STARLINK-1030,44735,53.0401,0.0001951,16.01284213,269.564153282452,272.1585924475439,1 44735U 19074Y   25249.75288293  .01327175  97396-3  23823-2 0  9993,2 44735  53.0401 260.6682 0001951 109.4937 250.6303 16.01284213321460
STARLINK-1031,44736,53.0553,0.0005757,15.35625597,455.1267546039144,462.9991066040111,1 44736U 19074Z   25249.86640797  .00100546  00000+0  28332-2 0  9999,2 44736  53.0553 294.5373 0005757 318.6533  41.4032 15.35625597321012
STARLINK-1036,44741,53.0545,0.0001331,15.06414103,546.2465764716608,548.090092751735,1 44741U 19074AE  25249.46880181  .00004415  00000+0  31500-3 0  9994,2 44741  53.0545 313.6240 0001331  87.7840 272.3302 15.06414103320701
STARLINK-1039,44744,53.0544,0.0003603,15.08792991,537.3945163253784,542.3796444777163,1 44744U 19074AH  25249.55706014  .00017042  00000+0  10875-2 0  9990,2 44744  53.0544 332.8147 0003603 294.1076  65.9537 15.08792991320444
STARLINK-1042,44747,53.047,0.0002651,15.40398064,443.12480690558823,446.74239893925824,1 44747U 19074AL  25249.42214478  .00022884  00000+0  56569-3 0  9998,2 44747  53.0470 252.4513 0002651 350.9769   9.1187 15.40398064321587
STARLINK-1043,44748,53.0553,0.0001051,15.06410954,546.4501351043828,547.9058363143795,1 44748U 19074AM  25249.50752306  .00013798  00000+0  94311-3 0  9996,2 44748  53.0553 333.4497 0001051  58.2113 301.8978 15.06410954320433
STARLINK-1046,44751,53.0546,0.0001367,15.06416302,546.2149067888195,548.1082834247227,1 44751U 19074AQ  25249.92032560  .00004186  00000+0  29959-3 0  9996,2 44751  53.0546 331.5971 0001367  62.3099 297.8028 15.06416302320493
STARLINK-1047,44752,53.0711,0.0004145,15.27690424,479.8746421845681,485.56229136652473,1 44752U 19074AR  25249.37451655  .00028176  00000+0  10361-2 0  9997,2 44752  53.0711 283.9003 0004145  18.7708 341.3442 15.27690424321121
STARLINK-1048,44753,53.054,0.0001159,15.06404353,546.3955703007414,548.0008630039611,1 44753U 19074AS  25249.81344858  .00003433  00000+0  24920-3 0  9999,2 44753  53.0540 292.0754 0001159  81.5463 278.5657 15.06404353321034
STARLINK-1053,44758,53.0424,0.000319,15.54075858,402.67655747590834,407.0040970106893,1 44758U 19074AX  25249.78694978  .00067321  00000+0  10187-2 0  9996,2 44758  53.0424 270.2338 0003190  36.4753 323.6474 15.54075858321355
STARLINK-1054,44759,53.0469,0.0010259,15.60718429,378.64173924856095,392.5195350965114,1 44759U 19074AY  25250.00002315  .00201439  00000+0  23231-2 0  9996,2 44759  53.0469 299.7531 0010259 317.6486 141.8770 15.60718429  5888
STARLINK-1056,44761,53.0448,0.0011538,15.72391215,344.299737025146,359.8303512622124,1 44761U 19074BA  25250.00002315  .00200675  00000+0  14443-2 0  9995,2 44761  53.0448 290.3887 0011538 344.7152 121.7967 15.72391215  5979
STARLINK-1057,44762,53.0447,0.0005227,15.87376572,306.1455366993032,313.13694006971036,1 44762U 19074BB  25250.00002315  .00381167  00000+0  13581-2 0  9994,2 44762  53.0447 262.9800 0005227 340.2294 179.6439 15.87376572  6012
STARLINK-1060,44765,53.0536,9e-05,15.14394228,522.1971590366729,523.4393309807747,1 44765U 19074BE  25250.00002315  .00115105  00000+0  61151-2 0  9990,2 44765  53.0536 311.0220 0000900 117.2744 195.5604 15.14394228  5806
STARLINK-1063,44768,53.0564,0.0001676,15.0642962,545.96010518816,548.2814515954769,1 44768U 19074BH  25249.51119066  .00012316  00000+0  84361-3 0  9998,2 44768  53.0564 333.4289 0001676  87.8353 272.2828 15.06429620320449
STARLINK-1067,44771,53.0555,0.0001261,15.0643515,546.2305574768388,547.9771032142507,1 44771U 19074BL  25249.50012511  .00015935  00000+0  10852-2 0  9991,2 44771  53.0555 333.4817 0001261  92.5291 267.5842 15.06435150320431
STARLINK-1068,44772,53.0548,0.0001267,15.06410803,546.3010110297373,548.055885964387,1 44772U 19074BM  25249.88899445  .00005596  00000+0  39418-3 0  9994,2 44772  53.0548 311.7370 0001267  89.3824 270.7310 15.06410803320769
STARLINK-1098,44917,53.0415,0.0005224,16.08873952,246.47163451290635,253.39664323880424,1 44917U 20001D   25248.31241359  .00726560  29019-3  81043-3 0  9996,2 44917  53.0415  43.9726 0005224 340.0748  20.0081 16.08873952312674
STARLINK-1104,44922,53.0427,0.0003766,16.11145771,241.20821848766536,246.19578762476795,1 44922U 20001J   25248.35439475  .00843054  41633-3  81184-3 0  9994,2 44922  53.0427  44.7765 0003766 330.7957  29.2866 16.11145771312668
STARLINK-1112,44925,53.0531,0.0005596,15.44888843,427.8939171525608,435.5154919883171,1 44925U 20001M   25249.80957473  .00099133  00000+0  20587-2 0  9990,2 44925  53.0531  66.3428 0005596 113.7473 246.4120 15.44888843312494
STARLINK-1114,44927,53.0545,0.0001293,15.06404859,546.3012202001373,548.0921114861248,1 44927U 20001P   25249.86135367  .00001811  00000+0  14041-3 0  9993,2 44927  53.0545  91.8571 0001293  89.5158 270.5979 15.06404859312144
STARLINK-1123,44930,53.054,0.000132,15.06417437,546.2439776047786,548.0722555155508,1 44930U 20001S   25249.87610716  .00006675  00000+0  46635-3 0  9991,2 44930  53.0540  91.7909 0001320 108.2818 251.8315 15.06417437312142
STARLINK-1144,44933,53.0485,0.0009031,15.47498446,417.90370967639683,430.18981398701726,1 44933U 20001V   25250.00002315  .00141016  00000+0  26573-2 0  9998,2 44933  53.0485  44.2996 0009031 234.0612 288.3821 15.47498446  5903
STARLINK-1071,44934,53.0383,0.0004023,16.05582763,256.3185918374429,261.658823181705,1 44934U 20001W   25248.34379140  .00608247  19051-3  83546-3 0  9994,2 44934  53.0383  21.6571 0004023 349.0134  11.0809 16.05582763312988
STARLINK-1091,44940,53.0437,0.0003339,15.70564218,355.0344566012218,359.53237035334223,1 44940U 20001AC  25250.00002315  .00188758  00000+0  14741-2 0  9994,2 44940  53.0437  32.4244 0003339 203.5859  14.7543 15.70564218  5811
STARLINK-1094,44941,53.0547,0.0001306,15.06390318,546.3367776356454,548.1456864298525,1 44941U 20001AD  25249.82267168 -.00000767  00000+0 -32615-4 0  9999,2 44941  53.0547  72.0276 0001306  79.4218 280.6918 15.06390318312414
STARLINK-1096,44942,52.9937,0.0003296,15.73277486,347.3198252426946,351.7547081192906,1 44942U 20001AE  25250.00002315  .00059712  00000+0  42526-3 0  9996,2 44942  52.9937 219.2975 0003296  82.8811 314.9055 15.73277486  5937
STARLINK-1122,44949,53.0537,0.0001237,15.06408531,546.3287493930229,548.0420741576963,1 44949U 20001AM  25249.77842780  .00005033  00000+0  35646-3 0  9995,2 44949  53.0537  72.2255 0001237  97.9512 262.1617 15.06408531312402
STARLINK-1066,44954,53.045,0.0003905,15.98273227,276.6097553949339,281.80914297174513,1 44954U 20001AS  25250.00002315  .00510622  12182-3  10782-2 0  9997,2 44954  53.0450 358.9841 0003905 344.5011 114.8533 15.98273227  6027
STARLINK-1080,44961,53.0539,0.0001014,15.06384469,546.5569234548893,547.9613937958575,1 44961U 20001AZ  25249.77658116  .00008901  00000+0  61593-3 0  9994,2 44961  53.0539  52.2379 0001014  91.6350 268.4755 15.06384469312693
STARLINK-1090,44968,53.0556,0.0001279,15.06398716,546.3297406322608,548.1012458000259,1 44968U 20001BG  25249.71391960 -.00000666  00000+0 -25802-4 0  9992,2 44968  53.0556  52.5206 0001279  91.5019 268.6117 15.06398716312688
STARLINK-1107,44972,53.016,0.0006314,15.53134313,403.2968768378796,411.86588200741517,1 44972U 20001BL  25249.56696707  .00115393  00000+0  17896-2 0  9991,2 44972  53.0160 348.6905 0006314   1.7985 358.3045 15.53134313313567
STARLINK-1115,44973,53.0221,0.0008556,16.11789986,236.2732982589905,247.6015696303557,1 44973U 20001BM  25248.33440032  .00884637  46871-3  81234-3 0  9996,2 44973  53.0221 306.2675 0008556 358.2374   1.8628 16.11789986314040
